{
  "type": "FeatureCollection",
  "features": [
    {
      "type": "Feature",
      "properties": {
        "norad_id": 34141,
        "name": "COSMOS 2251 DEB",
        "group": "cosmos-2251-debris",
        "lat": -66.00270020506271,
        "lon": -38.455256640268885,
        "alt_km": 764.3396656703635,
        "timestamp": "2025-12-27T05:29:39.598222+00:00",
        "meta_object_name": "COSMOS 2251 DEB",
        "meta_object_id": "1993-036LN",
        "meta_epoch": "2025-12-26T23:18:43.559136",
        "meta_mean_motion": 14.49386297,
        "meta_eccentricity": 0.00465153,
        "meta_inclination": 74.0117,
        "meta_ra_of_asc_node": 2.1228,
        "meta_arg_of_pericenter": 83.2454,
        "meta_mean_anomaly": 301.6285,
        "meta_ephemeris_type": 0,
        "meta_classification_type": "U",
        "meta_norad_cat_id": 34141,
        "meta_element_set_no": 999,
        "meta_rev_at_epoch": 87900,
        "meta_bstar": 0.001726955,
        "meta_mean_motion_dot": 6.673e-05,
        "meta_mean_motion_ddot": 0,
        "tle_line1": "1 34141U 93036LN  25360.97133749  .00006673  00000+0  17270-2 0  9993",
        "tle_line2": "2 34141  74.0117   2.1228 0046515  83.2454 301.6285 14.49386297879009"
      },
      "geometry": {
        "type": "Point",
        "coordinates": [
          -38.455256640268885,
          -66.00270020506271
        ]
      }
    },
    {
      "type": "Feature",
      "properties": {
        "norad_id": 34270,
        "name": "COSMOS 2251 DEB",
        "group": "cosmos-2251-debris",
        "lat": -6.474802194495886,
        "lon": -83.16000068389634,
        "alt_km": 669.9975234919348,
        "timestamp": "2025-12-27T05:29:39.598233+00:00",
        "meta_object_name": "COSMOS 2251 DEB",
        "meta_object_id": "1993-036LQ",
        "meta_epoch": "2025-12-26T21:19:54.797088",
        "meta_mean_motion": 14.65264846,
        "meta_eccentricity": 0.00482146,
        "meta_inclination": 74.0108,
        "meta_ra_of_asc_node": 279.36,
        "meta_arg_of_pericenter": 67.8685,
        "meta_mean_anomaly": 292.7591,
        "meta_ephemeris_type": 0,
        "meta_classification_type": "U",
        "meta_norad_cat_id": 34270,
        "meta_element_set_no": 999,
        "meta_rev_at_epoch": 89303,
        "meta_bstar": 0.00049759638,
        "meta_mean_motion_dot": 2.698e-05,
        "meta_mean_motion_ddot": 0,
        "tle_line1": "1 34270U 93036LQ  25360.88882867  .00002698  00000+0  49760-3 0  9991",
        "tle_line2": "2 34270  74.0108 279.3600 0048214  67.8685 292.7591 14.65264846893038"
      },
      "geometry": {
        "type": "Point",
        "coordinates": [
          -83.16000068389634,
          -6.474802194495886
        ]
      }
    },
    {
      "type": "Feature",
      "properties": {
        "norad_id": 34271,
        "name": "COSMOS 2251 DEB",
        "group": "cosmos-2251-debris",
        "lat": -53.47064272988793,
        "lon": 13.926454766617871,
        "alt_km": 651.8342559190005,
        "timestamp": "2025-12-27T05:29:39.598243+00:00",
        "meta_object_name": "COSMOS 2251 DEB",
        "meta_object_id": "1993-036LR",
        "meta_epoch": "2025-12-26T22:37:18.676128",
        "meta_mean_motion": 14.71092305,
        "meta_eccentricity": 0.00179984,
        "meta_inclination": 74.0214,
        "meta_ra_of_asc_node": 171.7266,
        "meta_arg_of_pericenter": 224.8235,
        "meta_mean_anomaly": 295.8874,
        "meta_ephemeris_type": 0,
        "meta_classification_type": "U",
        "meta_norad_cat_id": 34271,
        "meta_element_set_no": 999,
        "meta_rev_at_epoch": 88443,
        "meta_bstar": 0.0027275812,
        "meta_mean_motion_dot": 0.00016823,
        "meta_mean_motion_ddot": 0,
        "tle_line1": "1 34271U 93036LR  25360.94257727  .00016823  00000+0  27276-2 0  9992",
        "tle_line2": "2 34271  74.0214 171.7266 0017998 224.8235 295.8874 14.71092305884439"
      },
      "geometry": {
        "type": "Point",
        "coordinates": [
          13.926454766617871,
          -53.47064272988793
        ]
      }
    },
    {
      "type": "Feature",
      "properties": {
        "norad_id": 34273,
        "name": "COSMOS 2251 DEB",
        "group": "cosmos-2251-debris",
        "lat": 61.18481460828328,
        "lon": -151.6355213239541,
        "alt_km": 679.380340542758,
        "timestamp": "2025-12-27T05:29:39.598254+00:00",
        "meta_object_name": "COSMOS 2251 DEB",
        "meta_object_id": "1993-036LT",
        "meta_epoch": "2025-12-26T12:50:56.279040",
        "meta_mean_motion": 14.61344007,
        "meta_eccentricity": 0.001327,
        "meta_inclination": 74.0357,
        "meta_ra_of_asc_node": 61.0479,
        "meta_arg_of_pericenter": 186.2896,
        "meta_mean_anomaly": 240.9182,
        "meta_ephemeris_type": 0,
        "meta_classification_type": "U",
        "meta_norad_cat_id": 34273,
        "meta_element_set_no": 999,
        "meta_rev_at_epoch": 88823,
        "meta_bstar": 0.00085763,
        "meta_mean_motion_dot": 4.216e-05,
        "meta_mean_motion_ddot": 0,
        "tle_line1": "1 34273U 93036LT  25360.53537360  .00004216  00000+0  85763-3 0  9992",
        "tle_line2": "2 34273  74.0357  61.0479 0013270 186.2896 240.9182 14.61344007888232"
      },
      "geometry": {
        "type": "Point",
        "coordinates": [
          -151.6355213239541,
          61.18481460828328
        ]
      }
    },
    {
      "type": "Feature",
      "properties": {
        "norad_id": 34274,
        "name": "COSMOS 2251 DEB",
        "group": "cosmos-2251-debris",
        "lat": 21.866635666284274,
        "lon": 47.25979846511394,
        "alt_km": 691.1925180637154,
        "timestamp": "2025-12-27T05:29:39.598265+00:00",
        "meta_object_name": "COSMOS 2251 DEB",
        "meta_object_id": "1993-036LU",
        "meta_epoch": "2025-12-26T09:49:41.735712",
        "meta_mean_motion": 14.64932186,
        "meta_eccentricity": 0.0021167,
        "meta_inclination": 74.0039,
        "meta_ra_of_asc_node": 42.2274,
        "meta_arg_of_pericenter": 190.8598,
        "meta_mean_anomaly": 192.4467,
        "meta_ephemeris_type": 0,
        "meta_classification_type": "U",
        "meta_norad_cat_id": 34274,
        "meta_element_set_no": 999,
        "meta_rev_at_epoch": 88876,
        "meta_bstar": 0.0010046,
        "meta_mean_motion_dot": 5.366e-05,
        "meta_mean_motion_ddot": 0,
        "tle_line1": "1 34274U 93036LU  25360.40951083  .00005366  00000+0  10046-2 0  9999",
        "tle_line2": "2 34274  74.0039  42.2274 0021167 190.8598 192.4467 14.64932186888767"
      },
      "geometry": {
        "type": "Point",
        "coordinates": [
          47.25979846511394,
          21.866635666284274
        ]
      }
    },
    {
      "type": "Feature",
      "properties": {
        "norad_id": 34276,
        "name": "COSMOS 2251 DEB",
        "group": "cosmos-2251-debris",
        "lat": -68.04929673489865,
        "lon": 12.467803887285426,
        "alt_km": 706.6038659993455,
        "timestamp": "2025-12-27T05:29:39.598275+00:00",
        "meta_object_name": "COSMOS 2251 DEB",
        "meta_object_id": "1993-036LW",
        "meta_epoch": "2025-12-26T13:57:01.187136",
        "meta_mean_motion": 14.57315229,
        "meta_eccentricity": 0.0022015,
        "meta_inclination": 74.0234,
        "meta_ra_of_asc_node": 59.0032,
        "meta_arg_of_pericenter": 204.4532,
        "meta_mean_anomaly": 284.0843,
        "meta_ephemeris_type": 0,
        "meta_classification_type": "U",
        "meta_norad_cat_id": 34276,
        "meta_element_set_no": 999,
        "meta_rev_at_epoch": 88794,
        "meta_bstar": 0.00069567,
        "meta_mean_motion_dot": 3.131e-05,
        "meta_mean_motion_ddot": 0,
        "tle_line1": "1 34276U 93036LW  25360.58126374  .00003131  00000+0  69567-3 0  9998",
        "tle_line2": "2 34276  74.0234  59.0032 0022015 204.4532 284.0843 14.57315229887947"
      },
      "geometry": {
        "type": "Point",
        "coordinates": [
          12.467803887285426,
          -68.04929673489865
        ]
      }
    },
    {
      "type": "Feature",
      "properties": {
        "norad_id": 34297,
        "name": "COSMOS 2251 DEB",
        "group": "cosmos-2251-debris",
        "lat": -55.10273768130322,
        "lon": -126.5797867133659,
        "alt_km": 764.5120852232312,
        "timestamp": "2025-12-27T05:29:39.598286+00:00",
        "meta_object_name": "COSMOS 2251 DEB",
        "meta_object_id": "1993-036MT",
        "meta_epoch": "2025-12-26T10:15:55.052928",
        "meta_mean_motion": 14.36640578,
        "meta_eccentricity": 0.0017793,
        "meta_inclination": 74.0483,
        "meta_ra_of_asc_node": 259.0982,
        "meta_arg_of_pericenter": 325.3074,
        "meta_mean_anomaly": 154.1728,
        "meta_ephemeris_type": 0,
        "meta_classification_type": "U",
        "meta_norad_cat_id": 34297,
        "meta_element_set_no": 999,
        "meta_rev_at_epoch": 88261,
        "meta_bstar": 0.00013276,
        "meta_mean_motion_dot": 3.65e-06,
        "meta_mean_motion_ddot": 0,
        "tle_line1": "1 34297U 93036MT  25360.42772052  .00000365  00000+0  13276-3 0  9996",
        "tle_line2": "2 34297  74.0483 259.0982 0017793 325.3074 154.1728 14.36640578882616"
      },
      "geometry": {
        "type": "Point",
        "coordinates": [
          -126.5797867133659,
          -55.10273768130322
        ]
      }
    }
  ]
}